[{"OBJECT_NAME":"STARLINK-31028","OBJECT_ID":"2023-191J","EPOCH":"2026-03-09T11:30:34.665696","MEAN_MOTION":15.26762907,"ECCENTRICITY":0.00012112,"INCLINATION":43.0013,"RA_OF_ASC_NODE":104.232,"ARG_OF_PERICENTER":272.5081,"MEAN_ANOMALY":87.5632,"EPHEMERIS_TYPE":0,"CLASSIFICATION_TYPE":"U","NORAD_CAT_ID":58516,"ELEMENT_SET_NO":999,"REV_AT_EPOCH":12544,"BSTAR":0.00013746768,"MEAN_MOTION_DOT":3.432e-5,"MEAN_MOTION_DDOT":0},{"OBJECT_NAME":"DELTA 1 DEB","OBJECT_ID":"1977-065BM","EPOCH":"2026-03-09T08:53:34.800288","MEAN_MOTION":14.77293363,"ECCENTRICITY":0.02802368,"INCLINATION":28.9467,"RA_OF_ASC_NODE":72.3418,"ARG_OF_PERICENTER":336.7461,"MEAN_ANOMALY":22.0666,"EPHEMERIS_TYPE":0,"CLASSIFICATION_TYPE":"U","NORAD_CAT_ID":10234,"ELEMENT_SET_NO":999,"REV_AT_EPOCH":46616,"BSTAR":0.0015812082,"MEAN_MOTION_DOT":0.00022515,"MEAN_MOTION_DDOT":0}]
